CCSDS_OMM_VERS = 2.0
CREATION_DATE  = 
ORIGINATOR     = 

OBJECT_NAME    = H-2A R/B
OBJECT_ID      = 2006-002B
CENTER_NAME    = EARTH
REF_FRAME      = TEME
TIME_SYSTEM    = UTC
MEAN_ELEMENT_THEORY = SGP/SGP4

EPOCH          = 2026-03-17T03:08:53.048256
MEAN_MOTION    = 15.16589419
ECCENTRICITY   = .0051996
INCLINATION    = 98.2418
RA_OF_ASC_NODE = 223.7965
ARG_OF_PERICENTER = 215.3822
MEAN_ANOMALY   = 144.3955

EPHEMERIS_TYPE = 0
CLASSIFICATION_TYPE = U
NORAD_CAT_ID   = 28932
ELEMENT_SET_NO = 999
REV_AT_EPOCH   = 9556
BSTAR          = .42533E-3
MEAN_MOTION_DOT = .852E-4
MEAN_MOTION_DDOT = 0

CCSDS_OMM_VERS = 2.0
CREATION_DATE  = 
ORIGINATOR     = 

OBJECT_NAME    = RESURS-DK 1
OBJECT_ID      = 2006-021A
CENTER_NAME    = EARTH
REF_FRAME      = TEME
TIME_SYSTEM    = UTC
MEAN_ELEMENT_THEORY = SGP/SGP4

EPOCH          = 2026-03-16T19:24:54.766944
MEAN_MOTION    = 15.12798052
ECCENTRICITY   = .0001128
INCLINATION    = 69.9330
RA_OF_ASC_NODE = 218.6056
ARG_OF_PERICENTER = 150.4180
MEAN_ANOMALY   = 209.7050

EPHEMERIS_TYPE = 0
CLASSIFICATION_TYPE = U
NORAD_CAT_ID   = 29228
ELEMENT_SET_NO = 999
REV_AT_EPOCH   = 8860
BSTAR          = .16832E-3
MEAN_MOTION_DOT = .2855E-4
MEAN_MOTION_DDOT = 0

CCSDS_OMM_VERS = 2.0
CREATION_DATE  = 
ORIGINATOR     = 

OBJECT_NAME    = CZ-4B R/B
OBJECT_ID      = 2006-046C
CENTER_NAME    = EARTH
REF_FRAME      = TEME
TIME_SYSTEM    = UTC
MEAN_ELEMENT_THEORY = SGP/SGP4

EPOCH          = 2026-03-17T03:05:53.947104
MEAN_MOTION    = 15.16982191
ECCENTRICITY   = .0031841
INCLINATION    = 97.5582
RA_OF_ASC_NODE = 121.0180
ARG_OF_PERICENTER = 240.2506
MEAN_ANOMALY   = 119.5558

EPHEMERIS_TYPE = 0
CLASSIFICATION_TYPE = U
NORAD_CAT_ID   = 29507
ELEMENT_SET_NO = 999
REV_AT_EPOCH   = 6117
BSTAR          = .19555E-3
MEAN_MOTION_DOT = .384E-4
MEAN_MOTION_DDOT = 0

CCSDS_OMM_VERS = 2.0
CREATION_DATE  = 
ORIGINATOR     = 

OBJECT_NAME    = CZ-2C R/B
OBJECT_ID      = 2007-010B
CENTER_NAME    = EARTH
REF_FRAME      = TEME
TIME_SYSTEM    = UTC
MEAN_ELEMENT_THEORY = SGP/SGP4

EPOCH          = 2026-03-17T01:15:54.424800
MEAN_MOTION    = 14.20248851
ECCENTRICITY   = .0057829
INCLINATION    = 98.3984
RA_OF_ASC_NODE = 188.9626
ARG_OF_PERICENTER = 272.7931
MEAN_ANOMALY   = 86.6628

EPHEMERIS_TYPE = 0
CLASSIFICATION_TYPE = U
NORAD_CAT_ID   = 31114
ELEMENT_SET_NO = 999
REV_AT_EPOCH   = 98076
BSTAR          = .6859E-4
MEAN_MOTION_DOT = .107E-5
MEAN_MOTION_DDOT = 0

CCSDS_OMM_VERS = 2.0
CREATION_DATE  = 
ORIGINATOR     = 

OBJECT_NAME    = COSMO-SKYMED 1
OBJECT_ID      = 2007-023A
CENTER_NAME    = EARTH
REF_FRAME      = TEME
TIME_SYSTEM    = UTC
MEAN_ELEMENT_THEORY = SGP/SGP4

EPOCH          = 2026-03-17T03:40:09.530112
MEAN_MOTION    = 14.96600352
ECCENTRICITY   = .0001574
INCLINATION    = 97.8882
RA_OF_ASC_NODE = 267.2456
ARG_OF_PERICENTER = 90.7099
MEAN_ANOMALY   = 269.4303

EPHEMERIS_TYPE = 0
CLASSIFICATION_TYPE = U
NORAD_CAT_ID   = 31598
ELEMENT_SET_NO = 999
REV_AT_EPOCH   = 1602
BSTAR          = .30314E-3
MEAN_MOTION_DOT = .3393E-4
MEAN_MOTION_DDOT = 0

CCSDS_OMM_VERS = 2.0
CREATION_DATE  = 
ORIGINATOR     = 

OBJECT_NAME    = COSMOS 2428
OBJECT_ID      = 2007-029A
CENTER_NAME    = EARTH
REF_FRAME      = TEME
TIME_SYSTEM    = UTC
MEAN_ELEMENT_THEORY = SGP/SGP4

EPOCH          = 2026-03-16T14:44:28.779072
MEAN_MOTION    = 14.12947222
ECCENTRICITY   = .000939
INCLINATION    = 70.9439
RA_OF_ASC_NODE = 188.8098
ARG_OF_PERICENTER = 270.0339
MEAN_ANOMALY   = 89.9706

EPHEMERIS_TYPE = 0
CLASSIFICATION_TYPE = U
NORAD_CAT_ID   = 31792
ELEMENT_SET_NO = 999
REV_AT_EPOCH   = 96507
BSTAR          = .1571E-4
MEAN_MOTION_DOT = -.19E-6
MEAN_MOTION_DDOT = 0

CCSDS_OMM_VERS = 2.0
CREATION_DATE  = 
ORIGINATOR     = 

OBJECT_NAME    = SL-16 R/B
OBJECT_ID      = 2007-029B
CENTER_NAME    = EARTH
REF_FRAME      = TEME
TIME_SYSTEM    = UTC
MEAN_ELEMENT_THEORY = SGP/SGP4

EPOCH          = 2026-03-15T15:55:56.073216
MEAN_MOTION    = 14.14835963
ECCENTRICITY   = .00022711
INCLINATION    = 70.9757
RA_OF_ASC_NODE = 159.8277
ARG_OF_PERICENTER = 276.2076
MEAN_ANOMALY   = 246.2511

EPHEMERIS_TYPE = 0
CLASSIFICATION_TYPE = U
NORAD_CAT_ID   = 31793
ELEMENT_SET_NO = 999
REV_AT_EPOCH   = 96621
BSTAR          = .16674816E-3
MEAN_MOTION_DOT = .274E-5
MEAN_MOTION_DDOT = 0

CCSDS_OMM_VERS = 2.0
CREATION_DATE  = 
ORIGINATOR     = 

OBJECT_NAME    = KORONAS-FOTON
OBJECT_ID      = 2009-003A
CENTER_NAME    = EARTH
REF_FRAME      = TEME
TIME_SYSTEM    = UTC
MEAN_ELEMENT_THEORY = SGP/SGP4

EPOCH          = 2026-03-17T00:36:59.530464
MEAN_MOTION    = 15.43502654
ECCENTRICITY   = .0011703
INCLINATION    = 82.4270
RA_OF_ASC_NODE = 268.2495
ARG_OF_PERICENTER = 125.6134
MEAN_ANOMALY   = 234.6205

EPHEMERIS_TYPE = 0
CLASSIFICATION_TYPE = U
NORAD_CAT_ID   = 33504
ELEMENT_SET_NO = 999
REV_AT_EPOCH   = 94687
BSTAR          = .25307E-3
MEAN_MOTION_DOT = .11407E-3
MEAN_MOTION_DDOT = 0

CCSDS_OMM_VERS = 2.0
CREATION_DATE  = 
ORIGINATOR     = 

OBJECT_NAME    = CZ-2C R/B
OBJECT_ID      = 2011-030B
CENTER_NAME    = EARTH
REF_FRAME      = TEME
TIME_SYSTEM    = UTC
MEAN_ELEMENT_THEORY = SGP/SGP4

EPOCH          = 2026-03-16T21:48:23.486688
MEAN_MOTION    = 14.81250046
ECCENTRICITY   = .0051801
INCLINATION    = 97.8556
RA_OF_ASC_NODE = 33.0277
ARG_OF_PERICENTER = 328.4169
MEAN_ANOMALY   = 98.2177

EPHEMERIS_TYPE = 0
CLASSIFICATION_TYPE = U
NORAD_CAT_ID   = 37731
ELEMENT_SET_NO = 999
REV_AT_EPOCH   = 79116
BSTAR          = .19264E-3
MEAN_MOTION_DOT = .1481E-4
MEAN_MOTION_DDOT = 0

CCSDS_OMM_VERS = 2.0
CREATION_DATE  = 
ORIGINATOR     = 

OBJECT_NAME    = H-2A R/B
OBJECT_ID      = 2012-025E
CENTER_NAME    = EARTH
REF_FRAME      = TEME
TIME_SYSTEM    = UTC
MEAN_ELEMENT_THEORY = SGP/SGP4

EPOCH          = 2026-03-16T21:20:23.139744
MEAN_MOTION    = 14.95221717
ECCENTRICITY   = .0043294
INCLINATION    = 98.4735
RA_OF_ASC_NODE = 43.5121
ARG_OF_PERICENTER = 290.0304
MEAN_ANOMALY   = 69.6256

EPHEMERIS_TYPE = 0
CLASSIFICATION_TYPE = U
NORAD_CAT_ID   = 38341
ELEMENT_SET_NO = 999
REV_AT_EPOCH   = 74929
BSTAR          = .21634E-3
MEAN_MOTION_DOT = .2352E-4
MEAN_MOTION_DDOT = 0

CCSDS_OMM_VERS = 2.0
CREATION_DATE  = 
ORIGINATOR     = 

OBJECT_NAME    = SHIJIAN-16 (SJ-16)
OBJECT_ID      = 2013-057A
CENTER_NAME    = EARTH
REF_FRAME      = TEME
TIME_SYSTEM    = UTC
MEAN_ELEMENT_THEORY = SGP/SGP4

EPOCH          = 2026-03-17T04:54:14.793696
MEAN_MOTION    = 14.92382151
ECCENTRICITY   = .0015372
INCLINATION    = 74.9735
RA_OF_ASC_NODE = 170.8637
ARG_OF_PERICENTER = 93.2516
MEAN_ANOMALY   = 267.0431

EPHEMERIS_TYPE = 0
CLASSIFICATION_TYPE = U
NORAD_CAT_ID   = 39358
ELEMENT_SET_NO = 999
REV_AT_EPOCH   = 67262
BSTAR          = .20845E-3
MEAN_MOTION_DOT = .211E-4
MEAN_MOTION_DDOT = 0

CCSDS_OMM_VERS = 2.0
CREATION_DATE  = 
ORIGINATOR     = 

OBJECT_NAME    = SL-4 R/B
OBJECT_ID      = 2014-021B
CENTER_NAME    = EARTH
REF_FRAME      = TEME
TIME_SYSTEM    = UTC
MEAN_ELEMENT_THEORY = SGP/SGP4

EPOCH          = 2026-03-16T23:09:39.302208
MEAN_MOTION    = 15.39428092
ECCENTRICITY   = .009687
INCLINATION    = 51.6063
RA_OF_ASC_NODE = 301.7801
ARG_OF_PERICENTER = 129.5376
MEAN_ANOMALY   = 231.4219

EPHEMERIS_TYPE = 0
CLASSIFICATION_TYPE = U
NORAD_CAT_ID   = 39679
ELEMENT_SET_NO = 999
REV_AT_EPOCH   = 65739
BSTAR          = .31321E-3
MEAN_MOTION_DOT = .14258E-3
MEAN_MOTION_DDOT = 0

